[{"OBJECT_NAME":"STARLINK-3936","OBJECT_ID":"2022-053U","EPOCH":"2026-03-03T13:21:35.428320","MEAN_MOTION":15.08838227,"ECCENTRICITY":0.000109,"INCLINATION":53.2167,"RA_OF_ASC_NODE":181.6537,"ARG_OF_PERICENTER":86.5513,"MEAN_ANOMALY":273.5604,"EPHEMERIS_TYPE":0,"CLASSIFICATION_TYPE":"U","NORAD_CAT_ID":52674,"ELEMENT_SET_NO":999,"REV_AT_EPOCH":21012,"BSTAR":5.7655e-5,"MEAN_MOTION_DOT":6.3e-6,"MEAN_MOTION_DDOT":0},{"OBJECT_NAME":"STARLINK-3934","OBJECT_ID":"2022-053V","EPOCH":"2026-03-03T16:07:11.167392","MEAN_MOTION":15.08839403,"ECCENTRICITY":0.0001349,"INCLINATION":53.2181,"RA_OF_ASC_NODE":171.1403,"ARG_OF_PERICENTER":96.7295,"MEAN_ANOMALY":263.3851,"EPHEMERIS_TYPE":0,"CLASSIFICATION_TYPE":"U","NORAD_CAT_ID":52675,"ELEMENT_SET_NO":999,"REV_AT_EPOCH":21026,"BSTAR":4.1892e-5,"MEAN_MOTION_DOT":3.79e-6,"MEAN_MOTION_DDOT":0},{"OBJECT_NAME":"STARLINK-4006","OBJECT_ID":"2022-053W","EPOCH":"2026-03-03T14:41:04.324704","MEAN_MOTION":15.08840649,"ECCENTRICITY":0.0001262,"INCLINATION":53.2173,"RA_OF_ASC_NODE":181.3939,"ARG_OF_PERICENTER":132.6127,"MEAN_ANOMALY":227.4971,"EPHEMERIS_TYPE":0,"CLASSIFICATION_TYPE":"U","NORAD_CAT_ID":52676,"ELEMENT_SET_NO":999,"REV_AT_EPOCH":21012,"BSTAR":-9.3498e-5,"MEAN_MOTION_DOT":-1.776e-5,"MEAN_MOTION_DDOT":0},{"OBJECT_NAME":"STARLINK-4074","OBJECT_ID":"2022-053Y","EPOCH":"2026-03-03T16:23:07.970496","MEAN_MOTION":15.08825516,"ECCENTRICITY":0.0001318,"INCLINATION":53.2167,"RA_OF_ASC_NODE":171.1949,"ARG_OF_PERICENTER":79.939,"MEAN_ANOMALY":280.175,"EPHEMERIS_TYPE":0,"CLASSIFICATION_TYPE":"U","NORAD_CAT_ID":52678,"ELEMENT_SET_NO":999,"REV_AT_EPOCH":21026,"BSTAR":2.2943e-5,"MEAN_MOTION_DOT":7.7e-7,"MEAN_MOTION_DDOT":0},{"OBJECT_NAME":"STARLINK-4031","OBJECT_ID":"2022-053Z","EPOCH":"2026-03-03T17:16:04.740384","MEAN_MOTION":15.08838871,"ECCENTRICITY":0.000146,"INCLINATION":53.2178,"RA_OF_ASC_NODE":170.9231,"ARG_OF_PERICENTER":113.4279,"MEAN_ANOMALY":246.6867,"EPHEMERIS_TYPE":0,"CLASSIFICATION_TYPE":"U","NORAD_CAT_ID":52679,"ELEMENT_SET_NO":999,"REV_AT_EPOCH":21023,"BSTAR":0.00029767,"MEAN_MOTION_DOT":4.452e-5,"MEAN_MOTION_DDOT":0},{"OBJECT_NAME":"STARLINK-3774","OBJECT_ID":"2022-053AA","EPOCH":"2026-03-03T12:19:16.835520","MEAN_MOTION":15.08838961,"ECCENTRICITY":0.0001073,"INCLINATION":53.2171,"RA_OF_ASC_NODE":171.6135,"ARG_OF_PERICENTER":71.4084,"MEAN_ANOMALY":288.7024,"EPHEMERIS_TYPE":0,"CLASSIFICATION_TYPE":"U","NORAD_CAT_ID":52680,"ELEMENT_SET_NO":999,"REV_AT_EPOCH":21022,"BSTAR":-2.0597688e-5,"MEAN_MOTION_DOT":-6.16e-6,"MEAN_MOTION_DDOT":0},{"OBJECT_NAME":"STARLINK-4068","OBJECT_ID":"2022-053AB","EPOCH":"2026-03-03T17:10:45.191712","MEAN_MOTION":15.08858785,"ECCENTRICITY":0.000143,"INCLINATION":53.2169,"RA_OF_ASC_NODE":170.9372,"ARG_OF_PERICENTER":106.9675,"MEAN_ANOMALY":253.1474,"EPHEMERIS_TYPE":0,"CLASSIFICATION_TYPE":"U","NORAD_CAT_ID":52681,"ELEMENT_SET_NO":999,"REV_AT_EPOCH":21023,"BSTAR":0.00020433,"MEAN_MOTION_DOT":2.967e-5,"MEAN_MOTION_DDOT":0},{"OBJECT_NAME":"STARLINK-4017","OBJECT_ID":"2022-053AC","EPOCH":"2026-03-03T12:40:31.677888","MEAN_MOTION":15.08830787,"ECCENTRICITY":9.46e-5,"INCLINATION":53.2174,"RA_OF_ASC_NODE":171.78,"ARG_OF_PERICENTER":105.1741,"MEAN_ANOMALY":254.9355,"EPHEMERIS_TYPE":0,"CLASSIFICATION_TYPE":"U","NORAD_CAT_ID":52682,"ELEMENT_SET_NO":999,"REV_AT_EPOCH":21022,"BSTAR":-4.6136e-5,"MEAN_MOTION_DOT":-1.022e-5,"MEAN_MOTION_DDOT":0},{"OBJECT_NAME":"STARLINK-4014","OBJECT_ID":"2022-053AE","EPOCH":"2026-03-03T17:21:22.733856","MEAN_MOTION":15.08839715,"ECCENTRICITY":0.0001,"INCLINATION":53.2173,"RA_OF_ASC_NODE":170.9054,"ARG_OF_PERICENTER":91.812,"MEAN_ANOMALY":268.2987,"EPHEMERIS_TYPE":0,"CLASSIFICATION_TYPE":"U","NORAD_CAT_ID":52684,"ELEMENT_SET_NO":999,"REV_AT_EPOCH":21023,"BSTAR":2.3566e-5,"MEAN_MOTION_DOT":8.7e-7,"MEAN_MOTION_DDOT":0},{"OBJECT_NAME":"STARLINK-4029","OBJECT_ID":"2022-053AF","EPOCH":"2026-03-03T16:49:36.590880","MEAN_MOTION":15.08836805,"ECCENTRICITY":0.000127,"INCLINATION":53.2164,"RA_OF_ASC_NODE":171.0029,"ARG_OF_PERICENTER":108.3599,"MEAN_ANOMALY":251.7532,"EPHEMERIS_TYPE":0,"CLASSIFICATION_TYPE":"U","NORAD_CAT_ID":52685,"ELEMENT_SET_NO":999,"REV_AT_EPOCH":21021,"BSTAR":-0.00012134,"MEAN_MOTION_DOT":-2.218e-5,"MEAN_MOTION_DDOT":0},{"OBJECT_NAME":"STARLINK-4005","OBJECT_ID":"2022-053AG","EPOCH":"2026-03-03T16:08:36.921120","MEAN_MOTION":15.08839186,"ECCENTRICITY":0.0001307,"INCLINATION":53.2182,"RA_OF_ASC_NODE":171.4137,"ARG_OF_PERICENTER":93.3612,"MEAN_ANOMALY":266.7529,"EPHEMERIS_TYPE":0,"CLASSIFICATION_TYPE":"U","NORAD_CAT_ID":52686,"ELEMENT_SET_NO":999,"REV_AT_EPOCH":21021,"BSTAR":5.0664e-5,"MEAN_MOTION_DOT":5.19e-6,"MEAN_MOTION_DDOT":0},{"OBJECT_NAME":"STARLINK-3981","OBJECT_ID":"2022-053AH","EPOCH":"2026-03-03T11:58:07.474368","MEAN_MOTION":15.08854386,"ECCENTRICITY":0.00012161,"INCLINATION":53.2152,"RA_OF_ASC_NODE":171.9134,"ARG_OF_PERICENTER":80.6584,"MEAN_ANOMALY":279.4546,"EPHEMERIS_TYPE":0,"CLASSIFICATION_TYPE":"U","NORAD_CAT_ID":52687,"ELEMENT_SET_NO":999,"REV_AT_EPOCH":21018,"BSTAR":3.8632159e-5,"MEAN_MOTION_DOT":3.27e-6,"MEAN_MOTION_DDOT":0},{"OBJECT_NAME":"STARLINK-4032","OBJECT_ID":"2022-053AJ","EPOCH":"2026-03-03T16:38:57.530688","MEAN_MOTION":15.08847853,"ECCENTRICITY":0.0001118,"INCLINATION":53.2163,"RA_OF_ASC_NODE":170.9224,"ARG_OF_PERICENTER":87.1731,"MEAN_ANOMALY":272.9389,"EPHEMERIS_TYPE":0,"CLASSIFICATION_TYPE":"U","NORAD_CAT_ID":52688,"ELEMENT_SET_NO":999,"REV_AT_EPOCH":21021,"BSTAR":9.6585e-5,"MEAN_MOTION_DOT":1.25e-5,"MEAN_MOTION_DDOT":0},{"OBJECT_NAME":"STARLINK-4078","OBJECT_ID":"2022-053AK","EPOCH":"2026-03-03T09:35:45.972960","MEAN_MOTION":15.5212898,"ECCENTRICITY":0.00031702,"INCLINATION":53.2114,"RA_OF_ASC_NODE":113.8786,"ARG_OF_PERICENTER":28.5231,"MEAN_ANOMALY":331.5952,"EPHEMERIS_TYPE":0,"CLASSIFICATION_TYPE":"U","NORAD_CAT_ID":52689,"ELEMENT_SET_NO":999,"REV_AT_EPOCH":21103,"BSTAR":0.0012429056,"MEAN_MOTION_DOT":0.00076709,"MEAN_MOTION_DDOT":0},{"OBJECT_NAME":"STARLINK-4035","OBJECT_ID":"2022-053AL","EPOCH":"2026-03-03T16:54:52.533216","MEAN_MOTION":15.08851222,"ECCENTRICITY":0.0001054,"INCLINATION":53.2173,"RA_OF_ASC_NODE":170.9867,"ARG_OF_PERICENTER":83.675,"MEAN_ANOMALY":276.4362,"EPHEMERIS_TYPE":0,"CLASSIFICATION_TYPE":"U","NORAD_CAT_ID":52690,"ELEMENT_SET_NO":999,"REV_AT_EPOCH":21021,"BSTAR":0.000243,"MEAN_MOTION_DOT":3.583e-5,"MEAN_MOTION_DDOT":0},{"OBJECT_NAME":"STARLINK-3993","OBJECT_ID":"2022-053AN","EPOCH":"2026-03-03T17:37:14.100672","MEAN_MOTION":15.08837156,"ECCENTRICITY":0.0001458,"INCLINATION":53.218,"RA_OF_ASC_NODE":170.5871,"ARG_OF_PERICENTER":93.1375,"MEAN_ANOMALY":266.9784,"EPHEMERIS_TYPE":0,"CLASSIFICATION_TYPE":"U","NORAD_CAT_ID":52692,"ELEMENT_SET_NO":999,"REV_AT_EPOCH":21025,"BSTAR":4.2479e-5,"MEAN_MOTION_DOT":3.88e-6,"MEAN_MOTION_DDOT":0},{"OBJECT_NAME":"STARLINK-3946","OBJECT_ID":"2022-053AP","EPOCH":"2026-03-03T16:12:29.513376","MEAN_MOTION":15.08837867,"ECCENTRICITY":0.0001419,"INCLINATION":53.2179,"RA_OF_ASC_NODE":171.1221,"ARG_OF_PERICENTER":99.7192,"MEAN_ANOMALY":260.396,"EPHEMERIS_TYPE":0,"CLASSIFICATION_TYPE":"U","NORAD_CAT_ID":52693,"ELEMENT_SET_NO":999,"REV_AT_EPOCH":21024,"BSTAR":0.00014296,"MEAN_MOTION_DOT":1.988e-5,"MEAN_MOTION_DDOT":0},{"OBJECT_NAME":"STARLINK-4072","OBJECT_ID":"2022-053AQ","EPOCH":"2026-03-03T16:33:41.215104","MEAN_MOTION":15.08831459,"ECCENTRICITY":0.0001634,"INCLINATION":53.2179,"RA_OF_ASC_NODE":171.0568,"ARG_OF_PERICENTER":62.5727,"MEAN_ANOMALY":297.5432,"EPHEMERIS_TYPE":0,"CLASSIFICATION_TYPE":"U","NORAD_CAT_ID":52694,"ELEMENT_SET_NO":999,"REV_AT_EPOCH":21024,"BSTAR":-8.1918e-5,"MEAN_MOTION_DOT":-1.591e-5,"MEAN_MOTION_DDOT":0},{"OBJECT_NAME":"STARLINK-4041","OBJECT_ID":"2022-053AR","EPOCH":"2026-03-03T17:28:39.028800","MEAN_MOTION":15.0882657,"ECCENTRICITY":0.0001176,"INCLINATION":53.2175,"RA_OF_ASC_NODE":175.6815,"ARG_OF_PERICENTER":16.4222,"MEAN_ANOMALY":343.6808,"EPHEMERIS_TYPE":0,"CLASSIFICATION_TYPE":"U","NORAD_CAT_ID":52695,"ELEMENT_SET_NO":999,"REV_AT_EPOCH":21019,"BSTAR":-8.7579e-5,"MEAN_MOTION_DOT":-1.681e-5,"MEAN_MOTION_DDOT":0},{"OBJECT_NAME":"STARLINK-4018","OBJECT_ID":"2022-053AT","EPOCH":"2026-03-03T14:56:22.194240","MEAN_MOTION":15.08841576,"ECCENTRICITY":0.0001302,"INCLINATION":53.2182,"RA_OF_ASC_NODE":176.3599,"ARG_OF_PERICENTER":94.85,"MEAN_ANOMALY":265.2641,"EPHEMERIS_TYPE":0,"CLASSIFICATION_TYPE":"U","NORAD_CAT_ID":52697,"ELEMENT_SET_NO":999,"REV_AT_EPOCH":21017,"BSTAR":4.5189e-5,"MEAN_MOTION_DOT":4.31e-6,"MEAN_MOTION_DDOT":0},{"OBJECT_NAME":"STARLINK-4030","OBJECT_ID":"2022-053AU","EPOCH":"2026-03-03T16:46:15.930336","MEAN_MOTION":15.08843133,"ECCENTRICITY":0.0001442,"INCLINATION":53.2179,"RA_OF_ASC_NODE":176.0072,"ARG_OF_PERICENTER":80.1274,"MEAN_ANOMALY":279.9881,"EPHEMERIS_TYPE":0,"CLASSIFICATION_TYPE":"U","NORAD_CAT_ID":52698,"ELEMENT_SET_NO":999,"REV_AT_EPOCH":21017,"BSTAR":9.7046e-5,"MEAN_MOTION_DOT":1.257e-5,"MEAN_MOTION_DDOT":0},{"OBJECT_NAME":"STARLINK-3987","OBJECT_ID":"2022-053AV","EPOCH":"2026-03-03T13:05:02.192928","MEAN_MOTION":15.08839981,"ECCENTRICITY":0.000137,"INCLINATION":53.218,"RA_OF_ASC_NODE":166.7363,"ARG_OF_PERICENTER":89.6619,"MEAN_ANOMALY":270.453,"EPHEMERIS_TYPE":0,"CLASSIFICATION_TYPE":"U","NORAD_CAT_ID":52699,"ELEMENT_SET_NO":999,"REV_AT_EPOCH":21031,"BSTAR":1.6736e-5,"MEAN_MOTION_DOT":-2.2e-7,"MEAN_MOTION_DDOT":0},{"OBJECT_NAME":"STARLINK-4034","OBJECT_ID":"2022-053AW","EPOCH":"2026-03-03T17:23:17.975040","MEAN_MOTION":15.08847602,"ECCENTRICITY":0.0001384,"INCLINATION":53.2168,"RA_OF_ASC_NODE":175.5399,"ARG_OF_PERICENTER":97.3639,"MEAN_ANOMALY":262.7511,"EPHEMERIS_TYPE":0,"CLASSIFICATION_TYPE":"U","NORAD_CAT_ID":52700,"ELEMENT_SET_NO":999,"REV_AT_EPOCH":21019,"BSTAR":0.00020699,"MEAN_MOTION_DOT":3.008e-5,"MEAN_MOTION_DDOT":0}]
